[{"OBJECT_NAME":"STARLINK-2578","OBJECT_ID":"2021-038K","EPOCH":"2026-03-09T23:16:13.770048","MEAN_MOTION":15.30190999,"ECCENTRICITY":0.00010878,"INCLINATION":53.1606,"RA_OF_ASC_NODE":356.8437,"ARG_OF_PERICENTER":75.1008,"MEAN_ANOMALY":285.0113,"EPHEMERIS_TYPE":0,"CLASSIFICATION_TYPE":"U","NORAD_CAT_ID":48362,"ELEMENT_SET_NO":999,"REV_AT_EPOCH":26712,"BSTAR":1.485338e-5,"MEAN_MOTION_DOT":8.1e-7,"MEAN_MOTION_DDOT":0},{"OBJECT_NAME":"A-SEANSAT-PG1","OBJECT_ID":"2023-091AH","EPOCH":"2026-03-09T22:32:06.495648","MEAN_MOTION":15.33422293,"ECCENTRICITY":0.00088895,"INCLINATION":97.5184,"RA_OF_ASC_NODE":136.6191,"ARG_OF_PERICENTER":78.3219,"MEAN_ANOMALY":281.902,"EPHEMERIS_TYPE":0,"CLASSIFICATION_TYPE":"U","NORAD_CAT_ID":57197,"ELEMENT_SET_NO":999,"REV_AT_EPOCH":14948,"BSTAR":0.0007038551,"MEAN_MOTION_DOT":0.00022724,"MEAN_MOTION_DDOT":0}]
